{
  "type": "FeatureCollection",
  "features": [
    {
      "type": "Feature",
      "properties": {
        "norad_id": 66604,
        "name": "STARLINK-35977",
        "group": "last-30-days",
        "lat": 15.986567436137731,
        "lon": 1.054207396963972,
        "alt_km": 412.7306014473679,
        "timestamp": "2025-12-11T15:53:38.293885+00:00",
        "meta_object_name": "STARLINK-35977",
        "meta_object_id": "2025-270S",
        "meta_epoch": "2025-12-11T06:00:02.999808",
        "meta_mean_motion": 15.50690392,
        "meta_eccentricity": 0.00018493,
        "meta_inclination": 42.9995,
        "meta_ra_of_asc_node": 201.3717,
        "meta_arg_of_pericenter": 249.38,
        "meta_mean_anomaly": 122.9088,
        "meta_ephemeris_type": 0,
        "meta_classification_type": "U",
        "meta_norad_cat_id": 66604,
        "meta_element_set_no": 999,
        "meta_rev_at_epoch": 416,
        "meta_bstar": -0.0030270854,
        "meta_mean_motion_dot": -0.00174723,
        "meta_mean_motion_ddot": 0,
        "tle_line1": "1 66604U 25270S   25345.25003472 -.00174723  00000+0 -30271-2 0  9990",
        "tle_line2": "2 66604  42.9995 201.3717 0001849 249.3800 122.9088 15.50690392  4162"
      },
      "geometry": {
        "type": "Point",
        "coordinates": [
          1.054207396963972,
          15.986567436137731
        ]
      }
    },
    {
      "type": "Feature",
      "properties": {
        "norad_id": 66605,
        "name": "STARLINK-36052",
        "group": "last-30-days",
        "lat": 14.740109060719105,
        "lon": 2.5564892292038515,
        "alt_km": 413.2742531934091,
        "timestamp": "2025-12-11T15:53:38.293894+00:00",
        "meta_object_name": "STARLINK-36052",
        "meta_object_id": "2025-270T",
        "meta_epoch": "2025-12-11T06:00:02.999808",
        "meta_mean_motion": 15.50654622,
        "meta_eccentricity": 0.00020931,
        "meta_inclination": 42.9999,
        "meta_ra_of_asc_node": 201.3679,
        "meta_arg_of_pericenter": 260.8947,
        "meta_mean_anomaly": 113.3593,
        "meta_ephemeris_type": 0,
        "meta_classification_type": "U",
        "meta_norad_cat_id": 66605,
        "meta_element_set_no": 999,
        "meta_rev_at_epoch": 416,
        "meta_bstar": -0.0029601726,
        "meta_mean_motion_dot": -0.00170742,
        "meta_mean_motion_ddot": 0,
        "tle_line1": "1 66605U 25270T   25345.25003472 -.00170742  00000+0 -29602-2 0  9994",
        "tle_line2": "2 66605  42.9999 201.3679 0002093 260.8947 113.3593 15.50654622  4167"
      },
      "geometry": {
        "type": "Point",
        "coordinates": [
          2.5564892292038515,
          14.740109060719105
        ]
      }
    },
    {
      "type": "Feature",
      "properties": {
        "norad_id": 66606,
        "name": "STARLINK-36063",
        "group": "last-30-days",
        "lat": 12.207502948906148,
        "lon": 5.520535012863662,
        "alt_km": 413.2306804031459,
        "timestamp": "2025-12-11T15:53:38.293904+00:00",
        "meta_object_name": "STARLINK-36063",
        "meta_object_id": "2025-270U",
        "meta_epoch": "2025-12-11T06:00:02.999808",
        "meta_mean_motion": 15.50693279,
        "meta_eccentricity": 0.0001843,
        "meta_inclination": 42.9996,
        "meta_ra_of_asc_node": 201.3573,
        "meta_arg_of_pericenter": 251.1479,
        "meta_mean_anomaly": 126.896,
        "meta_ephemeris_type": 0,
        "meta_classification_type": "U",
        "meta_norad_cat_id": 66606,
        "meta_element_set_no": 999,
        "meta_rev_at_epoch": 416,
        "meta_bstar": -0.003154063,
        "meta_mean_motion_dot": -0.00181892,
        "meta_mean_motion_ddot": 0,
        "tle_line1": "1 66606U 25270U   25345.25003472 -.00181892  00000+0 -31541-2 0  9998",
        "tle_line2": "2 66606  42.9996 201.3573 0001843 251.1479 126.8960 15.50693279  4161"
      },
      "geometry": {
        "type": "Point",
        "coordinates": [
          5.520535012863662,
          12.207502948906148
        ]
      }
    },
    {
      "type": "Feature",
      "properties": {
        "norad_id": 66607,
        "name": "STARLINK-35993",
        "group": "last-30-days",
        "lat": 13.481283040116997,
        "lon": 4.043240877702642,
        "alt_km": 413.3916860393156,
        "timestamp": "2025-12-11T15:53:38.293914+00:00",
        "meta_object_name": "STARLINK-35993",
        "meta_object_id": "2025-270V",
        "meta_epoch": "2025-12-11T06:00:02.999808",
        "meta_mean_motion": 15.50648017,
        "meta_eccentricity": 0.00020213,
        "meta_inclination": 42.9998,
        "meta_ra_of_asc_node": 201.363,
        "meta_arg_of_pericenter": 260.371,
        "meta_mean_anomaly": 115.8025,
        "meta_ephemeris_type": 0,
        "meta_classification_type": "U",
        "meta_norad_cat_id": 66607,
        "meta_element_set_no": 999,
        "meta_rev_at_epoch": 406,
        "meta_bstar": -0.0027882836,
        "meta_mean_motion_dot": -0.00161006,
        "meta_mean_motion_ddot": 0,
        "tle_line1": "1 66607U 25270V   25345.25003472 -.00161006  00000+0 -27883-2 0  9998",
        "tle_line2": "2 66607  42.9998 201.3630 0002021 260.3710 115.8025 15.50648017  4066"
      },
      "geometry": {
        "type": "Point",
        "coordinates": [
          4.043240877702642,
          13.481283040116997
        ]
      }
    },
    {
      "type": "Feature",
      "properties": {
        "norad_id": 66608,
        "name": "STARLINK-36036",
        "group": "last-30-days",
        "lat": 10.937819473503355,
        "lon": 6.971977266251325,
        "alt_km": 413.3363035669954,
        "timestamp": "2025-12-11T15:53:38.293924+00:00",
        "meta_object_name": "STARLINK-36036",
        "meta_object_id": "2025-270W",
        "meta_epoch": "2025-12-11T06:00:02.999808",
        "meta_mean_motion": 15.50680971,
        "meta_eccentricity": 0.00018385,
        "meta_inclination": 42.9999,
        "meta_ra_of_asc_node": 201.3532,
        "meta_arg_of_pericenter": 250.0236,
        "meta_mean_anomaly": 129.9329,
        "meta_ephemeris_type": 0,
        "meta_classification_type": "U",
        "meta_norad_cat_id": 66608,
        "meta_element_set_no": 999,
        "meta_rev_at_epoch": 400,
        "meta_bstar": -0.0027678421,
        "meta_mean_motion_dot": -0.00160032,
        "meta_mean_motion_ddot": 0,
        "tle_line1": "1 66608U 25270W   25345.25003472 -.00160032  00000+0 -27678-2 0  9999",
        "tle_line2": "2 66608  42.9999 201.3532 0001838 250.0236 129.9329 15.50680971  4005"
      },
      "geometry": {
        "type": "Point",
        "coordinates": [
          6.971977266251325,
          10.937819473503355
        ]
      }
    },
    {
      "type": "Feature",
      "properties": {
        "norad_id": 66609,
        "name": "STARLINK-36034",
        "group": "last-30-days",
        "lat": 9.657183682342708,
        "lon": 8.414375084250919,
        "alt_km": 413.75629160595145,
        "timestamp": "2025-12-11T15:53:38.293933+00:00",
        "meta_object_name": "STARLINK-36034",
        "meta_object_id": "2025-270X",
        "meta_epoch": "2025-12-11T06:00:02.999808",
        "meta_mean_motion": 15.50637011,
        "meta_eccentricity": 0.00020967,
        "meta_inclination": 42.9999,
        "meta_ra_of_asc_node": 201.3479,
        "meta_arg_of_pericenter": 257.598,
        "meta_mean_anomaly": 124.3312,
        "meta_ephemeris_type": 0,
        "meta_classification_type": "U",
        "meta_norad_cat_id": 66609,
        "meta_element_set_no": 999,
        "meta_rev_at_epoch": 400,
        "meta_bstar": -0.002494352,
        "meta_mean_motion_dot": -0.00144318,
        "meta_mean_motion_ddot": 0,
        "tle_line1": "1 66609U 25270X   25345.25003472 -.00144318  00000+0 -24944-2 0  9992",
        "tle_line2": "2 66609  42.9999 201.3479 0002096 257.5980 124.3312 15.50637011  4009"
      },
      "geometry": {
        "type": "Point",
        "coordinates": [
          8.414375084250919,
          9.657183682342708
        ]
      }
    },
    {
      "type": "Feature",
      "properties": {
        "norad_id": 66610,
        "name": "STARLINK-35680",
        "group": "last-30-days",
        "lat": 8.36700870244739,
        "lon": 9.851489415378635,
        "alt_km": 414.0656159312357,
        "timestamp": "2025-12-11T15:53:38.293949+00:00",
        "meta_object_name": "STARLINK-35680",
        "meta_object_id": "2025-270Y",
        "meta_epoch": "2025-12-11T06:00:02.999808",
        "meta_mean_motion": 15.50654477,
        "meta_eccentricity": 0.00021174,
        "meta_inclination": 43,
        "meta_ra_of_asc_node": 201.3445,
        "meta_arg_of_pericenter": 263.2377,
        "meta_mean_anomaly": 120.6048,
        "meta_ephemeris_type": 0,
        "meta_classification_type": "U",
        "meta_norad_cat_id": 66610,
        "meta_element_set_no": 999,
        "meta_rev_at_epoch": 427,
        "meta_bstar": -0.0030347999,
        "meta_mean_motion_dot": -0.00174945,
        "meta_mean_motion_ddot": 0,
        "tle_line1": "1 66610U 25270Y   25345.25003472 -.00174945  00000+0 -30348-2 0  9998",
        "tle_line2": "2 66610  43.0000 201.3445 0002117 263.2377 120.6048 15.50654477  4276"
      },
      "geometry": {
        "type": "Point",
        "coordinates": [
          9.851489415378635,
          8.36700870244739
        ]
      }
    }
  ]
}